{"fetched_at":"2026-07-10T18:08:40.774Z","source":"https://celestrak.org/NORAD/elements/gp.php?NAME=WORLDVIEW&FORMAT=JSON","constellation":"worldview","records":[{"OBJECT_NAME":"WORLDVIEW-1 (WV-1)","OBJECT_ID":"2007-041A","EPOCH":"2026-07-10T06:24:08.330976","CLASSIFICATION_TYPE":"U","MEAN_MOTION":15.24524238,"ECCENTRICITY":0.00011052,"INCLINATION":97.3891,"RA_OF_ASC_NODE":310.6852,"ARG_OF_PERICENTER":235.7012,"MEAN_ANOMALY":124.4121,"EPHEMERIS_TYPE":0,"NORAD_CAT_ID":32060,"ELEMENT_SET_NO":999,"REV_AT_EPOCH":4639,"BSTAR":0.00017397291,"MEAN_MOTION_DOT":0.00004208,"MEAN_MOTION_DDOT":0},{"OBJECT_NAME":"WORLDVIEW-2 (WV-2)","OBJECT_ID":"2009-055A","EPOCH":"2026-07-10T06:23:29.994432","CLASSIFICATION_TYPE":"U","MEAN_MOTION":14.37906133,"ECCENTRICITY":0.00051055,"INCLINATION":98.4758,"RA_OF_ASC_NODE":264.4015,"ARG_OF_PERICENTER":141.7437,"MEAN_ANOMALY":218.4113,"EPHEMERIS_TYPE":0,"NORAD_CAT_ID":35946,"ELEMENT_SET_NO":999,"REV_AT_EPOCH":87896,"BSTAR":0.00003244312,"MEAN_MOTION_DOT":5.4e-7,"MEAN_MOTION_DDOT":0},{"OBJECT_NAME":"WORLDVIEW-3 (WV-3)","OBJECT_ID":"2014-048A","EPOCH":"2026-07-10T06:41:04.991136","CLASSIFICATION_TYPE":"U","MEAN_MOTION":14.8505962,"ECCENTRICITY":0.00009125,"INCLINATION":97.8558,"RA_OF_ASC_NODE":265.792,"ARG_OF_PERICENTER":162.2723,"MEAN_ANOMALY":197.8523,"EPHEMERIS_TYPE":0,"NORAD_CAT_ID":40115,"ELEMENT_SET_NO":999,"REV_AT_EPOCH":64533,"BSTAR":0.000061586286,"MEAN_MOTION_DOT":0.00000473,"MEAN_MOTION_DDOT":0}]}
